{
  "norad_id": 67087,
  "name": "STARLINK-35842",
  "history": [
    {
      "epoch": "2026-04-13T06:00:02.000160Z",
      "apogee_km": 574.0386912569256,
      "perigee_km": 570.1743558578282,
      "latitude_deg": 57.204306142233236,
      "longitude_deg": 30.008166076543677,
      "height_km": 582.9069893156521,
      "semi_major_axis_km": 6950.243523557377,
      "eccentricity": 0.000278,
      "inclination_deg": 70.0,
      "raan_deg": 287.2808,
      "arg_perigee_deg": 264.2526,
      "mean_anomaly_deg": 159.037,
      "mean_motion_rev_day": 14.98313627
    },
    {
      "epoch": "2026-04-14T20:10:23.443104Z",
      "apogee_km": 573.8556599288177,
      "perigee_km": 570.2554601827078,
      "latitude_deg": 8.670360668400878e-06,
      "longitude_deg": 137.6575281402309,
      "height_km": 574.7985249498208,
      "semi_major_axis_km": 6950.192560055762,
      "eccentricity": 0.000259,
      "inclination_deg": 70.0004,
      "raan_deg": 283.2664,
      "arg_perigee_deg": 259.893,
      "mean_anomaly_deg": 100.1937,
      "mean_motion_rev_day": 14.98330107
    },
    {
      "epoch": "2026-04-15T18:36:16.347744Z",
      "apogee_km": 573.8787028038441,
      "perigee_km": 570.2131763215184,
      "latitude_deg": -6.740272191145402e-06,
      "longitude_deg": 157.9091650350794,
      "height_km": 574.7759163499164,
      "semi_major_axis_km": 6950.182939562681,
      "eccentricity": 0.0002637,
      "inclination_deg": 70.0008,
      "raan_deg": 280.9097,
      "arg_perigee_deg": 260.4896,
      "mean_anomaly_deg": 99.5965,
      "mean_motion_rev_day": 14.98333218
    },
    {
      "epoch": "2026-04-16T13:49:52.979232Z",
      "apogee_km": 573.851681047825,
      "perigee_km": 570.2139621631959,
      "latitude_deg": -1.3384247356770735e-05,
      "longitude_deg": -133.30318537648128,
      "height_km": 574.7535207707923,
      "semi_major_axis_km": 6950.16982160551,
      "eccentricity": 0.0002617,
      "inclination_deg": 70.0008,
      "raan_deg": 278.8896,
      "arg_perigee_deg": 260.712,
      "mean_anomaly_deg": 99.3743,
      "mean_motion_rev_day": 14.9833746
    },
    {
      "epoch": "2026-04-17T21:52:33.870432Z",
      "apogee_km": 573.8358986801641,
      "perigee_km": 570.1923514543596,
      "latitude_deg": 6.386210201984504e-05,
      "longitude_deg": 101.34343570198789,
      "height_km": 574.8201864323655,
      "semi_major_axis_km": 6950.151125067262,
      "eccentricity": 0.00026212,
      "inclination_deg": 70.0014,
      "raan_deg": 275.5226,
      "arg_perigee_deg": 257.9962,
      "mean_anomaly_deg": 102.0904,
      "mean_motion_rev_day": 14.98343506
    },
    {
      "epoch": "2026-04-18T20:18:26.381088Z",
      "apogee_km": 573.834798889904,
      "perigee_km": 570.1887508426089,
      "latitude_deg": -6.291967777727247e-05,
      "longitude_deg": 121.5966766833325,
      "height_km": 574.8048811923813,
      "semi_major_axis_km": 6950.148774866257,
      "eccentricity": 0.0002623,
      "inclination_deg": 70.0016,
      "raan_deg": 273.1659,
      "arg_perigee_deg": 258.4215,
      "mean_anomaly_deg": 101.6649,
      "mean_motion_rev_day": 14.98344266
    },
    {
      "epoch": "2026-04-19T20:20:27.245184Z",
      "apogee_km": 573.8023124092078,
      "perigee_km": 570.2938589779496,
      "latitude_deg": 4.135685573219496e-05,
      "longitude_deg": 117.58088917339178,
      "height_km": 574.8497367982146,
      "semi_major_axis_km": 6950.185085693579,
      "eccentricity": 0.0002524,
      "inclination_deg": 70.002,
      "raan_deg": 270.6407,
      "arg_perigee_deg": 257.6718,
      "mean_anomaly_deg": 102.4159,
      "mean_motion_rev_day": 14.98332524
    },
    {
      "epoch": "2026-04-20T10:45:39.693312Z",
      "apogee_km": 573.8409243308679,
      "perigee_km": 570.2436505352789,
      "latitude_deg": 4.438730580859293e-05,
      "longitude_deg": -100.82819158202612,
      "height_km": 574.7973900960019,
      "semi_major_axis_km": 6950.179287433073,
      "eccentricity": 0.00025879,
      "inclination_deg": 70.002,
      "raan_deg": 269.1257,
      "arg_perigee_deg": 259.4953,
      "mean_anomaly_deg": 100.5915,
      "mean_motion_rev_day": 14.98334399
    },
    {
      "epoch": "2026-04-21T20:24:29.032128Z",
      "apogee_km": 573.8578424808384,
      "perigee_km": 570.2242893879675,
      "latitude_deg": 1.1214475022577496e-05,
      "longitude_deg": 109.54807979243648,
      "height_km": 574.5577228619151,
      "semi_major_axis_km": 6950.178065934402,
      "eccentricity": 0.0002614,
      "inclination_deg": 70.0029,
      "raan_deg": 265.5894,
      "arg_perigee_deg": 267.1803,
      "mean_anomaly_deg": 92.9057,
      "mean_motion_rev_day": 14.98334794
    },
    {
      "epoch": "2026-04-22T17:14:13.795008Z",
      "apogee_km": 573.7587046354902,
      "perigee_km": 570.3044708473826,
      "latitude_deg": 5.2584856033781055e-05,
      "longitude_deg": 154.06845985322198,
      "height_km": 574.5129180477735,
      "semi_major_axis_km": 6950.168587741436,
      "eccentricity": 0.0002485,
      "inclination_deg": 70.0042,
      "raan_deg": 263.4017,
      "arg_perigee_deg": 268.2052,
      "mean_anomaly_deg": 91.8823,
      "mean_motion_rev_day": 14.98337859
    },
    {
      "epoch": "2026-04-22T20:26:29.935104Z",
      "apogee_km": 573.6632059870371,
      "perigee_km": 570.4272011530538,
      "latitude_deg": -1.8259153541527914e-05,
      "longitude_deg": 105.53268003484169,
      "height_km": 574.6039940312008,
      "semi_major_axis_km": 6950.182203570045,
      "eccentricity": 0.0002328,
      "inclination_deg": 70.0036,
      "raan_deg": 263.0648,
      "arg_perigee_deg": 265.3291,
      "mean_anomaly_deg": 94.7602,
      "mean_motion_rev_day": 14.98333456
    },
    {
      "epoch": "2026-04-24T18:54:24.645600Z",
      "apogee_km": 573.8230899343289,
      "perigee_km": 570.5314211029154,
      "latitude_deg": 1.4579750373349625e-05,
      "longitude_deg": 121.76587082365728,
      "height_km": 574.5427276651188,
      "semi_major_axis_km": 6950.314255518622,
      "eccentricity": 0.0002368,
      "inclination_deg": 70.0038,
      "raan_deg": 258.1842,
      "arg_perigee_deg": 272.1431,
      "mean_anomaly_deg": 87.9457,
      "mean_motion_rev_day": 14.98290755
    },
    {
      "epoch": "2026-04-25T18:56:14.174880Z",
      "apogee_km": 574.0020022373128,
      "perigee_km": 568.6620302452329,
      "latitude_deg": -9.414879874314375e-06,
      "longitude_deg": 117.79879542456472,
      "height_km": 573.1334982552244,
      "semi_major_axis_km": 6949.469016241273,
      "eccentricity": 0.0003842,
      "inclination_deg": 70.0059,
      "raan_deg": 255.6604,
      "arg_perigee_deg": 283.5871,
      "mean_anomaly_deg": 76.486,
      "mean_motion_rev_day": 14.98564111
    },
    {
      "epoch": "2026-04-26T20:34:31.431072Z",
      "apogee_km": 574.4749146196136,
      "perigee_km": 569.7041401266943,
      "latitude_deg": -6.485894465602821e-06,
      "longitude_deg": 89.48057569745224,
      "height_km": 574.3181769967239,
      "semi_major_axis_km": 6950.226527373154,
      "eccentricity": 0.00034321,
      "inclination_deg": 70.0024,
      "raan_deg": 252.967,
      "arg_perigee_deg": 274.7936,
      "mean_anomaly_deg": 85.2831,
      "mean_motion_rev_day": 14.98319123
    }
  ]
}